[{"OBJECT_NAME":"ONEWEB-0375","OBJECT_ID":"2021-090Y","EPOCH":"2025-09-29T13:44:08.733120","MEAN_MOTION":13.20771695,"ECCENTRICITY":0.0002162,"INCLINATION":87.9241,"RA_OF_ASC_NODE":326.4053,"ARG_OF_PERICENTER":81.538,"MEAN_ANOMALY":278.5999,"EPHEMERIS_TYPE":0,"CLASSIFICATION_TYPE":"U","NORAD_CAT_ID":49301,"ELEMENT_SET_NO":999,"REV_AT_EPOCH":19612,"BSTAR":0.00023337,"MEAN_MOTION_DOT":1.08e-6,"MEAN_MOTION_DDOT":0},{"OBJECT_NAME":"ONEWEB-0376","OBJECT_ID":"2021-090Z","EPOCH":"2025-09-29T16:21:46.298304","MEAN_MOTION":13.19725054,"ECCENTRICITY":0.0001638,"INCLINATION":87.9291,"RA_OF_ASC_NODE":356.7602,"ARG_OF_PERICENTER":104.3985,"MEAN_ANOMALY":255.733,"EPHEMERIS_TYPE":0,"CLASSIFICATION_TYPE":"U","NORAD_CAT_ID":49302,"ELEMENT_SET_NO":999,"REV_AT_EPOCH":19209,"BSTAR":-5.3421e-5,"MEAN_MOTION_DOT":-8.0e-8,"MEAN_MOTION_DDOT":0},{"OBJECT_NAME":"ONEWEB-0377","OBJECT_ID":"2021-090AA","EPOCH":"2025-09-29T15:12:58.733568","MEAN_MOTION":13.20773201,"ECCENTRICITY":0.0002146,"INCLINATION":87.9247,"RA_OF_ASC_NODE":326.3894,"ARG_OF_PERICENTER":97.3547,"MEAN_ANOMALY":262.783,"EPHEMERIS_TYPE":0,"CLASSIFICATION_TYPE":"U","NORAD_CAT_ID":49303,"ELEMENT_SET_NO":999,"REV_AT_EPOCH":19612,"BSTAR":0.00019689,"MEAN_MOTION_DOT":9.3e-7,"MEAN_MOTION_DDOT":0},{"OBJECT_NAME":"ONEWEB-0378","OBJECT_ID":"2021-090AB","EPOCH":"2025-09-29T04:50:13.966656","MEAN_MOTION":13.20770007,"ECCENTRICITY":0.00018874,"INCLINATION":87.926,"RA_OF_ASC_NODE":326.4897,"ARG_OF_PERICENTER":90.5819,"MEAN_ANOMALY":269.5531,"EPHEMERIS_TYPE":0,"CLASSIFICATION_TYPE":"U","NORAD_CAT_ID":49304,"ELEMENT_SET_NO":999,"REV_AT_EPOCH":19533,"BSTAR":-3.4557256e-5,"MEAN_MOTION_DOT":-1.0e-8,"MEAN_MOTION_DDOT":0},{"OBJECT_NAME":"ONEWEB-0379","OBJECT_ID":"2021-090AC","EPOCH":"2025-09-29T17:09:38.121120","MEAN_MOTION":13.14502647,"ECCENTRICITY":0.0001705,"INCLINATION":87.9069,"RA_OF_ASC_NODE":341.5791,"ARG_OF_PERICENTER":96.1727,"MEAN_ANOMALY":263.9597,"EPHEMERIS_TYPE":0,"CLASSIFICATION_TYPE":"U","NORAD_CAT_ID":49305,"ELEMENT_SET_NO":999,"REV_AT_EPOCH":19334,"BSTAR":0.00074238,"MEAN_MOTION_DOT":2.88e-6,"MEAN_MOTION_DDOT":0},{"OBJECT_NAME":"ONEWEB-0380","OBJECT_ID":"2021-090AD","EPOCH":"2025-09-29T18:06:23.252256","MEAN_MOTION":13.19726554,"ECCENTRICITY":0.0001992,"INCLINATION":87.9282,"RA_OF_ASC_NODE":356.7732,"ARG_OF_PERICENTER":95.1479,"MEAN_ANOMALY":264.9882,"EPHEMERIS_TYPE":0,"CLASSIFICATION_TYPE":"U","NORAD_CAT_ID":49306,"ELEMENT_SET_NO":999,"REV_AT_EPOCH":19207,"BSTAR":0.00011906,"MEAN_MOTION_DOT":6.1e-7,"MEAN_MOTION_DDOT":0},{"OBJECT_NAME":"ONEWEB-0381","OBJECT_ID":"2021-090AE","EPOCH":"2025-09-29T15:08:14.879328","MEAN_MOTION":13.20772028,"ECCENTRICITY":0.0001976,"INCLINATION":87.9242,"RA_OF_ASC_NODE":326.3977,"ARG_OF_PERICENTER":87.986,"MEAN_ANOMALY":272.15,"EPHEMERIS_TYPE":0,"CLASSIFICATION_TYPE":"U","NORAD_CAT_ID":49307,"ELEMENT_SET_NO":999,"REV_AT_EPOCH":19543,"BSTAR":0.0002182,"MEAN_MOTION_DOT":1.02e-6,"MEAN_MOTION_DDOT":0},{"OBJECT_NAME":"ONEWEB-0382","OBJECT_ID":"2021-090AF","EPOCH":"2025-09-29T16:39:08.021376","MEAN_MOTION":13.20772674,"ECCENTRICITY":0.0001865,"INCLINATION":87.9246,"RA_OF_ASC_NODE":326.3761,"ARG_OF_PERICENTER":86.6682,"MEAN_ANOMALY":273.4664,"EPHEMERIS_TYPE":0,"CLASSIFICATION_TYPE":"U","NORAD_CAT_ID":49308,"ELEMENT_SET_NO":999,"REV_AT_EPOCH":19543,"BSTAR":3.2881e-5,"MEAN_MOTION_DOT":2.6e-7,"MEAN_MOTION_DDOT":0},{"OBJECT_NAME":"ONEWEB-0383","OBJECT_ID":"2021-090AG","EPOCH":"2025-09-29T15:10:52.593024","MEAN_MOTION":13.14503167,"ECCENTRICITY":0.0001648,"INCLINATION":87.9077,"RA_OF_ASC_NODE":341.5776,"ARG_OF_PERICENTER":94.3208,"MEAN_ANOMALY":265.811,"EPHEMERIS_TYPE":0,"CLASSIFICATION_TYPE":"U","NORAD_CAT_ID":49309,"ELEMENT_SET_NO":999,"REV_AT_EPOCH":19336,"BSTAR":-0.00047406,"MEAN_MOTION_DOT":-1.63e-6,"MEAN_MOTION_DDOT":0},{"OBJECT_NAME":"ONEWEB-0384","OBJECT_ID":"2021-090AH","EPOCH":"2025-09-29T14:42:34.412256","MEAN_MOTION":13.20792479,"ECCENTRICITY":0.0001769,"INCLINATION":87.9263,"RA_OF_ASC_NODE":326.4195,"ARG_OF_PERICENTER":78.282,"MEAN_ANOMALY":281.8511,"EPHEMERIS_TYPE":0,"CLASSIFICATION_TYPE":"U","NORAD_CAT_ID":49310,"ELEMENT_SET_NO":999,"REV_AT_EPOCH":19543,"BSTAR":6.9372e-5,"MEAN_MOTION_DOT":4.1e-7,"MEAN_MOTION_DDOT":0},{"OBJECT_NAME":"ONEWEB-0385","OBJECT_ID":"2021-090AJ","EPOCH":"2025-09-29T14:38:41.904672","MEAN_MOTION":13.20771222,"ECCENTRICITY":0.0001833,"INCLINATION":87.9239,"RA_OF_ASC_NODE":326.4035,"ARG_OF_PERICENTER":89.3934,"MEAN_ANOMALY":270.741,"EPHEMERIS_TYPE":0,"CLASSIFICATION_TYPE":"U","NORAD_CAT_ID":49311,"ELEMENT_SET_NO":999,"REV_AT_EPOCH":19540,"BSTAR":8.5763e-6,"MEAN_MOTION_DOT":1.6e-7,"MEAN_MOTION_DDOT":0},{"OBJECT_NAME":"ONEWEB-0386","OBJECT_ID":"2021-090AK","EPOCH":"2025-09-29T15:03:40.974048","MEAN_MOTION":13.20773029,"ECCENTRICITY":0.0001779,"INCLINATION":87.9251,"RA_OF_ASC_NODE":326.3773,"ARG_OF_PERICENTER":83.9145,"MEAN_ANOMALY":276.2191,"EPHEMERIS_TYPE":0,"CLASSIFICATION_TYPE":"U","NORAD_CAT_ID":49312,"ELEMENT_SET_NO":999,"REV_AT_EPOCH":19542,"BSTAR":7.5596e-5,"MEAN_MOTION_DOT":4.4e-7,"MEAN_MOTION_DDOT":0},{"OBJECT_NAME":"ONEWEB-0387","OBJECT_ID":"2021-090AL","EPOCH":"2025-09-29T12:51:51.880032","MEAN_MOTION":13.20772853,"ECCENTRICITY":0.0002118,"INCLINATION":87.9239,"RA_OF_ASC_NODE":326.4478,"ARG_OF_PERICENTER":90.9426,"MEAN_ANOMALY":269.195,"EPHEMERIS_TYPE":0,"CLASSIFICATION_TYPE":"U","NORAD_CAT_ID":49313,"ELEMENT_SET_NO":999,"REV_AT_EPOCH":19541,"BSTAR":-1.0965e-6,"MEAN_MOTION_DOT":1.3e-7,"MEAN_MOTION_DDOT":0},{"OBJECT_NAME":"ONEWEB-0388","OBJECT_ID":"2021-090AM","EPOCH":"2025-09-29T17:59:35.102976","MEAN_MOTION":13.19725978,"ECCENTRICITY":0.0001783,"INCLINATION":87.928,"RA_OF_ASC_NODE":356.7803,"ARG_OF_PERICENTER":95.568,"MEAN_ANOMALY":264.5656,"EPHEMERIS_TYPE":0,"CLASSIFICATION_TYPE":"U","NORAD_CAT_ID":49314,"ELEMENT_SET_NO":999,"REV_AT_EPOCH":19206,"BSTAR":-1.5778e-6,"MEAN_MOTION_DOT":1.2e-7,"MEAN_MOTION_DDOT":0},{"OBJECT_NAME":"ONEWEB-0389","OBJECT_ID":"2021-132A","EPOCH":"2025-09-29T19:31:33.650688","MEAN_MOTION":13.17647769,"ECCENTRICITY":0.0001867,"INCLINATION":87.9075,"RA_OF_ASC_NODE":57.6522,"ARG_OF_PERICENTER":83.7842,"MEAN_ANOMALY":276.3502,"EPHEMERIS_TYPE":0,"CLASSIFICATION_TYPE":"U","NORAD_CAT_ID":50469,"ELEMENT_SET_NO":999,"REV_AT_EPOCH":18379,"BSTAR":0.00012163,"MEAN_MOTION_DOT":6.0e-7,"MEAN_MOTION_DDOT":0},{"OBJECT_NAME":"ONEWEB-0390","OBJECT_ID":"2021-132B","EPOCH":"2025-09-29T19:34:00.007104","MEAN_MOTION":13.17650204,"ECCENTRICITY":0.0001885,"INCLINATION":87.9073,"RA_OF_ASC_NODE":57.6577,"ARG_OF_PERICENTER":99.9546,"MEAN_ANOMALY":260.1799,"EPHEMERIS_TYPE":0,"CLASSIFICATION_TYPE":"U","NORAD_CAT_ID":50470,"ELEMENT_SET_NO":999,"REV_AT_EPOCH":18379,"BSTAR":0.00021639,"MEAN_MOTION_DOT":9.7e-7,"MEAN_MOTION_DDOT":0},{"OBJECT_NAME":"ONEWEB-0391","OBJECT_ID":"2021-132C","EPOCH":"2025-09-29T19:36:26.678880","MEAN_MOTION":13.17648132,"ECCENTRICITY":0.0002446,"INCLINATION":87.907,"RA_OF_ASC_NODE":57.6695,"ARG_OF_PERICENTER":83.0608,"MEAN_ANOMALY":277.0801,"EPHEMERIS_TYPE":0,"CLASSIFICATION_TYPE":"U","NORAD_CAT_ID":50471,"ELEMENT_SET_NO":999,"REV_AT_EPOCH":18379,"BSTAR":0.00018472,"MEAN_MOTION_DOT":8.5e-7,"MEAN_MOTION_DDOT":0}]
