ONEWEB-0375             
1 49301U 21090Y   25272.57232330  .00000108  00000+0  23337-3 0  9991
2 49301  87.9241 326.4053 0002162  81.5380 278.5999 13.20771695196128
ONEWEB-0376             
1 49302U 21090Z   25272.68178586 -.00000008  00000+0 -53421-4 0  9995
2 49302  87.9291 356.7602 0001638 104.3985 255.7330 13.19725054192096
ONEWEB-0377             
1 49303U 21090AA  25272.63401312  .00000093  00000+0  19689-3 0  9996
2 49303  87.9247 326.3894 0002146  97.3547 262.7830 13.20773201196124
ONEWEB-0378             
1 49304U 21090AB  25272.20155054 -.00000001  00000+0 -34557-4 0  9992
2 49304  87.9260 326.4897 0001887  90.5819 269.5531 13.20770007195338
ONEWEB-0379             
1 49305U 21090AC  25272.71502455  .00000288  00000+0  74238-3 0  9994
2 49305  87.9069 341.5791 0001705  96.1727 263.9597 13.14502647193341
ONEWEB-0380             
1 49306U 21090AD  25272.75443579  .00000061  00000+0  11906-3 0  9992
2 49306  87.9282 356.7732 0001992  95.1479 264.9882 13.19726554192070
ONEWEB-0381             
1 49307U 21090AE  25272.63072777  .00000102  00000+0  21820-3 0  9990
2 49307  87.9242 326.3977 0001976  87.9860 272.1500 13.20772028195436
ONEWEB-0382             
1 49308U 21090AF  25272.69384284  .00000026  00000+0  32881-4 0  9991
2 49308  87.9246 326.3761 0001865  86.6682 273.4664 13.20772674195439
ONEWEB-0383             
1 49309U 21090AG  25272.63255316 -.00000163  00000+0 -47406-3 0  9991
2 49309  87.9077 341.5776 0001648  94.3208 265.8110 13.14503167193369
ONEWEB-0384             
1 49310U 21090AH  25272.61289829  .00000041  00000+0  69372-4 0  9997
2 49310  87.9263 326.4195 0001769  78.2820 281.8511 13.20792479195436
ONEWEB-0385             
1 49311U 21090AJ  25272.61020723  .00000016  00000+0  85763-5 0  9999
2 49311  87.9239 326.4035 0001833  89.3934 270.7410 13.20771222195409
ONEWEB-0386             
1 49312U 21090AK  25272.62755757  .00000044  00000+0  75596-4 0  9996
2 49312  87.9251 326.3773 0001779  83.9145 276.2191 13.20773029195421
ONEWEB-0387             
1 49313U 21090AL  25272.53601713  .00000013  00000+0 -10965-5 0  9996
2 49313  87.9239 326.4478 0002118  90.9426 269.1950 13.20772853195416
ONEWEB-0388             
1 49314U 21090AM  25272.74971184  .00000012  00000+0 -15778-5 0  9998
2 49314  87.9280 356.7803 0001783  95.5680 264.5656 13.19725978192065
ONEWEB-0389             
1 50469U 21132A   25272.81358392  .00000060  00000+0  12163-3 0  9991
2 50469  87.9075  57.6522 0001867  83.7842 276.3502 13.17647769183797
ONEWEB-0390             
1 50470U 21132B   25272.81527786  .00000097  00000+0  21639-3 0  9996
2 50470  87.9073  57.6577 0001885  99.9546 260.1799 13.17650204183794
ONEWEB-0391             
1 50471U 21132C   25272.81697545  .00000085  00000+0  18472-3 0  9996
2 50471  87.9070  57.6695 0002446  83.0608 277.0801 13.17648132183798
